H1 CPF 01  gfz 2021 02 16 01  5471 terrasarx 
H2 0702601  6201 31698    2021 02 16 00 59 42 2021 02 21 00 00 42   120 1 1  0 0 0
H9
10 0 59261  36702.000000  0    2831484.549  -5996207.820  -1876917.108
10 0 59261  36822.000000  0    2540796.899  -5797142.198  -2728241.410
10 0 59261  36942.000000  0    2210227.773  -5491572.373  -3531663.741
10 0 59261  37062.000000  0    1847402.791  -5084293.218  -4273140.919
10 0 59261  37182.000000  0    1460397.455  -4581999.983  -4939748.423
10 0 59261  37302.000000  0    1057560.939  -3993167.181  -5519899.730
10 0 59261  37422.000000  0     647339.368  -3327895.847  -6003539.583
10 0 59261  37542.000000  0     238101.951  -2597732.475  -6382307.598
10 0 59261  37662.000000  0    -162026.047  -1815464.162  -6649671.306
10 0 59261  37782.000000  0    -545320.269   -994893.662  -6801028.240
10 0 59261  37902.000000  0    -904601.558   -150597.888  -6833777.051
10 0 59261  38022.000000  0   -1233366.560    702326.360  -6747356.397
10 0 59261  38142.000000  0   -1525902.696   1548525.210  -6543253.003
10 0 59261  38262.000000  0   -1777385.030   2372657.239  -6224978.560
10 0 59261  38382.000000  0   -1983955.047   3159665.382  -5798017.153
10 0 59261  38502.000000  0   -2142780.131   3895049.556  -5269740.545
10 0 59261  38622.000000  0   -2252092.223   4565134.026  -4649292.556
10 0 59261  38742.000000  0   -2311205.661   5157326.269  -3947441.544
10 0 59261  38862.000000  0   -2320512.358   5660359.981  -3176401.873
10 0 59261  38982.000000  0   -2281454.124   6064517.525  -2349628.895
10 0 59261  39102.000000  0   -2196473.207   6361828.876  -1481588.452
10 0 59261  39222.000000  0   -2068941.735   6546238.619   -587502.964
10 0 59261  39342.000000  0   -1903071.261   6613737.936    316917.450
10 0 59261  39462.000000  0   -1703804.437   6562460.394   1215758.135
10 0 59261  39582.000000  0   -1476690.151   6392730.794   2093191.983
10 0 59261  39702.000000  0   -1227745.796   6107067.682   2933767.124
10 0 59261  39822.000000  0    -963311.762   5710143.053   3722685.479
10 0 59261  39942.000000  0    -689901.730   5208700.936   4446068.262
10 0 59261  40062.000000  0    -414051.556   4611434.194   5091205.150
10 0 59261  40182.000000  0    -142169.079   3928821.511   5646775.885
10 0 59261  40302.000000  0     119608.063   3172936.190   6103045.000
10 0 59261  40422.000000  0     365545.394   2357223.988   6452028.264
10 0 59261  40542.000000  0     590432.862   1496258.501   6687625.892
10 0 59261  40662.000000  0     789692.006    605477.052   6805723.452
10 0 59261  40782.000000  0     959466.890   -299096.728   6804258.236
10 0 59261  40902.000000  0    1096697.676  -1201139.831   6683254.063
10 0 59261  41022.000000  0    1199175.690  -2084324.204   6444821.467
10 0 59261  41142.000000  0    1265579.083  -2932612.148   6093123.810
10 0 59261  41262.000000  0    1295488.281  -3730549.623   5634308.809
10 0 59261  41382.000000  0    1289380.883  -4463550.143   5076405.233
10 0 59261  41502.000000  0    1248607.670  -5118164.887   4429188.722
10 0 59261  41622.000000  0    1175348.922  -5682337.471   3704017.141
10 0 59261  41742.000000  0    1072551.890  -6145636.485   2913633.701
10 0 59261  41862.000000  0     943850.527  -6499457.508   2071942.606
10 0 59261  41982.000000  0     793468.354  -6737192.198   1193762.582
10 0 59261  42102.000000  0     626108.225  -6854360.064    294561.260
10 0 59261  42222.000000  0     446830.478  -6848699.432   -609826.123
10 0 59261  42342.000000  0     260922.318  -6720210.388  -1503486.562
10 0 59261  42462.000000  0      73763.989  -6471151.219  -2370717.595
10 0 59261  42582.000000  0    -109305.687  -6105991.116  -3196309.143
10 0 59261  42702.000000  0    -283121.563  -5631320.058  -3965814.434
10 0 59261  42822.000000  0    -442818.868  -5055717.023  -4665803.915
10 0 59261  42942.000000  0    -583950.917  -4389581.628  -5284095.545
10 0 59261  43062.000000  0    -702595.419  -3644935.075  -5809959.642
10 0 59261  43182.000000  0    -795446.871  -2835194.281  -6234295.500
10 0 59261  43302.000000  0    -859893.616  -1974924.446  -6549777.875
10 0 59261  43422.000000  0    -894078.421  -1079575.326  -6750971.838
10 0 59261  43542.000000  0    -896941.915   -165206.186  -6834417.011
10 0 59261  43662.000000  0    -868247.613    751797.661  -6798680.062
10 0 59261  43782.000000  0    -808588.572   1655010.875  -6644375.841
10 0 59261  43902.000000  0    -719376.115   2528254.711  -6374157.893
10 0 59261  44022.000000  0    -602810.243   3355880.309  -5992678.831
10 0 59261  44142.000000  0    -461831.894   4123046.659  -5506519.421
10 0 59261  44262.000000  0    -300057.666   4815986.631  -4924085.378
10 0 59261  44382.000000  0    -121698.660   5422258.326  -4255473.831
10 0 59261  44502.000000  0      68535.680   5930976.727  -3512308.271
10 0 59261  44622.000000  0     265547.217   6333019.446  -2707544.292
10 0 59261  44742.000000  0     463969.924   6621202.636  -1855248.990
10 0 59261  44862.000000  0     658299.326   6790422.459   -970356.270
10 0 59261  44982.000000  0     843027.605   6837756.965    -68402.360
10 0 59261  45102.000000  0    1012781.056   6762525.240    834753.067
10 0 59261  45222.000000  0    1162455.957   6566300.774   1723213.837
10 0 59261  45342.000000  0    1287348.274   6252880.047   2581335.178
10 0 59261  45462.000000  0    1383275.120   5828207.519   3394006.787
10 0 59261  45582.000000  0    1446685.062   5300257.855   4146926.415
10 0 59261  45702.000000  0    1474755.283   4678877.965   4826856.066
10 0 59261  45822.000000  0    1465470.530   3975592.115   5421858.618
10 0 59261  45942.000000  0    1417683.218   3203376.732   5921502.460
10 0 59261  46062.000000  0    1331155.352   2376414.521   6317039.645
10 0 59261  46182.000000  0    1206579.541   1509827.909   6601554.087
10 0 59261  46302.000000  0    1045579.855    619398.027   6770076.333
10 0 59261  46422.000000  0     850692.166   -278723.515   6819663.776
10 0 59261  46542.000000  0     625324.389  -1168306.125   6749450.028
10 0 59261  46662.000000  0     373696.744  -2033333.737   6560659.908
10 0 59261  46782.000000  0     100762.803  -2858293.062   6256589.671
10 0 59261  46902.000000  0    -187886.886  -3628453.590   5842551.839
10 0 59261  47022.000000  0    -486136.116  -4330131.163   5325785.577
10 0 59261  47142.000000  0    -787468.121  -4950933.757   4715337.859
10 0 59261  47262.000000  0   -1085103.840  -5479988.994   4021913.521
10 0 59261  47382.000000  0   -1372150.148  -5908145.231   3257690.680
10 0 59261  47502.000000  0   -1641753.793  -6228139.000   2436107.402
10 0 59261  47622.000000  0   -1887258.404  -6434727.519   1571624.680
10 0 59261  47742.000000  0   -2102361.112  -6524782.021    679466.871
10 0 59261  47862.000000  0   -2281262.494  -6497338.188   -224654.081
10 0 59261  47982.000000  0   -2418807.311  -6353603.172  -1124824.026
10 0 59261  48102.000000  0   -2510612.680  -6096918.785  -2005215.392
10 0 59261  48222.000000  0   -2553180.655  -5732682.127  -2850373.266
10 0 59261  48342.000000  0   -2543991.913  -5268225.360  -3645492.855
10 0 59261  48462.000000  0   -2481578.048  -4712657.803  -4376681.198
10 0 59261  48582.000000  0   -2365571.328  -4076676.451  -5031197.420
10 0 59261  48702.000000  0   -2196731.646  -3372350.755  -5597668.596
10 0 59261  48822.000000  0   -1976950.657  -2612886.528  -6066279.038
10 0 59261  48942.000000  0   -1709232.488  -1812373.299  -6428930.531
10 0 59261  49062.000000  0   -1397651.664   -985520.828  -6679370.581
10 0 59261  49182.000000  0   -1047290.797   -147390.549  -6813288.904
10 0 59261  49302.000000  0    -664158.455    686873.844  -6828382.913
10 0 59261  49422.000000  0    -255087.397   1502312.997  -6724392.834
10 0 59261  49542.000000  0     172383.665   2284413.001  -6503105.392
10 0 59261  49662.000000  0     610144.525   3019358.043  -6168328.412
10 0 59261  49782.000000  0    1049664.190   3694272.259  -5725832.820
10 0 59261  49902.000000  0    1482152.699   4297444.580  -5183261.949
10 0 59261  50022.000000  0    1898733.061   4818534.924  -4550011.609
10 0 59261  50142.000000  0    2290620.733   5248758.744  -3837078.170
10 0 59261  50262.000000  0    2649306.225   5581043.645  -3056876.219
10 0 59261  50382.000000  0    2966737.805   5810156.112  -2223029.333
10 0 59261  50502.000000  0    3235500.441   5932794.386  -1350135.008
10 0 59261  50622.000000  0    3448985.570   5947644.206   -453507.619
10 0 59261  50742.000000  0    3601546.819   5855394.747    451095.361
10 0 59261  50862.000000  0    3688637.898   5658713.974   1347757.274
10 0 59261  50982.000000  0    3706929.961   5362184.236   2220689.882
10 0 59261  51102.000000  0    3654404.269   4972200.844   3054519.834
10 0 59261  51222.000000  0    3530417.562   4496832.557   3834568.447
10 0 59261  51342.000000  0    3335739.672   3945649.513   4547113.853
10 0 59261  51462.000000  0    3072561.215   3329525.887   5179637.302
10 0 59261  51582.000000  0    2744468.849   2660417.068   5721042.284
10 0 59261  51702.000000  0    2356396.219   1951121.710   6161843.887
10 0 59261  51822.000000  0    1914548.213   1215032.540   6494330.564
10 0 59261  51942.000000  0    1426298.427    465879.868   6712692.593
10 0 59261  52062.000000  0     900063.753   -282524.305   6813116.894
10 0 59261  52182.000000  0     345158.664  -1016539.974   6793850.836
10 0 59261  52302.000000  0    -228369.954  -1722948.102   6655231.155
10 0 59261  52422.000000  0    -809924.784  -2389188.469   6399677.930
10 0 59261  52542.000000  0   -1388553.104  -3003583.205   6031653.529
10 0 59261  52662.000000  0   -1953150.206  -3555541.879   5557589.013
10 0 59261  52782.000000  0   -2492671.852  -4035747.246   4985779.811
10 0 59261  52902.000000  0   -2996353.011  -4436318.508   4326247.969
10 0 59261  53022.000000  0   -3453926.379  -4750946.984   3590570.560
10 0 59261  53142.000000  0   -3855834.282  -4975001.146   2791677.911
99
